ONEWEB-0331             
1 49198U 21083N   25326.15621678  .00000095  00000+0  20781-3 0  9993
2 49198  87.9206  16.5670 0001492 101.2075 258.9224 13.18689726202728
ONEWEB-0333             
1 49199U 21083P   25326.16564838  .00000445  00000+0  11822-2 0  9993
2 49199  87.8986   1.4059 0001887  98.9548 261.1795 13.13469964203738
ONEWEB-0334             
1 49200U 21083Q   25326.40224505 -.00001308  00000+0 -32489-2 0  9990
2 49200  87.9174 315.7018 0002946  90.3864 269.7607 13.20775735209490
ONEWEB-0335             
1 49201U 21083R   25326.16056844  .00000270  00000+0  70422-3 0  9998
2 49201  87.8986   1.3951 0001642  98.4277 261.7038 13.13470751203748
ONEWEB-0336             
1 49202U 21083S   25326.13177963 -.00000294  00000+0 -83999-3 0  9993
2 49202  87.8992   1.3965 0001407  97.5726 262.5563 13.13469968203738
ONEWEB-0337             
1 49203U 21083T   25326.14179831 -.00000137  00000+0 -41137-3 0  9995
2 49203  87.8997   1.4053 0001669  91.0083 269.1237 13.13469739203735
ONEWEB-0338             
1 49204U 21083U   25326.45276939  .00000028  00000+0  35984-4 0  9998
2 49204  87.9180 315.6942 0002156  88.8576 271.2804 13.20771726209528
ONEWEB-0339             
1 49205U 21083V   25326.15040919  .00000090  00000+0  21023-3 0  9990
2 49205  87.8994   1.3852 0001917  92.3405 267.7944 13.13469768203717
